NORAD_CAT_ID,OBJECT_NAME,OBJECT_TYPE,EPOCH,MEAN_MOTION,ECCENTRICITY,INCLINATION,RA_OF_ASC_NODE,ARG_OF_PERICENTER,MEAN_ANOMALY,BSTAR,MEAN_MOTION_DOT,MEAN_MOTION_DDOT,TLE_LINE0,TLE_LINE1,TLE_LINE2,SEMIMAJOR_AXIS,PERIOD,APOGEE,PERIGEE,DECAYED
52637.0,STARLINK-3961,PAYLOAD,2022-09-13 14:00:01,15.08869507,0.0001786,53.2153,214.3115,54.8908,170.7088,-0.0035109,-0.00055777,0.0,0 STARLINK-3961,1 52637U 22052AR  22256.58334491 -.00055777  00000-0 -35109-2 0  9991,2 52637  53.2153 214.3115 0001786  54.8908 170.7088 15.08869507  1301,6917.79,95.436,540.891,538.42,0.0
52637.0,STARLINK-3961,PAYLOAD,2022-09-13 16:00:00,15.08849909,0.0001733,53.2158,213.9368,56.1773,262.3314,-0.001715,-0.00027486,0.0,0 STARLINK-3961,1 52637U 22052AR  22256.66667824 -.00027486  00000-0 -17150-2 0  9991,2 52637  53.2158 213.9368 0001733  56.1773 262.3314 15.08849909 19323,6917.85,95.437,540.914,538.516,0.0
52637.0,STARLINK-3961,PAYLOAD,2022-09-13 22:00:00,15.08854758,0.0001761,53.2161,212.8137,59.8552,177.3479,-0.0042201999999999,-0.00066857,0.0,0 STARLINK-3961,1 52637U 22052AR  22256.91667824 -.00066857  00000-0 -42202-2 0  9990,2 52637  53.2161 212.8137 0001761  59.8552 177.3479 15.08854758  1309,6917.835,95.437,540.919,538.482,0.0
52637.0,STARLINK-3961,PAYLOAD,2022-09-14 14:00:01,15.08822772,0.000172,53.2171,209.8216,57.293,203.0619,0.0011209,0.00017588,0.0,0 STARLINK-3961,1 52637U 22052AR  22257.58334491  .00017588  00000-0  11209-2 0  9993,2 52637  53.2171 209.8216 0001720  57.2930 203.0619 15.08822772 19450,6917.933000000001,95.439,540.988,538.6080000000002,0.0
52637.0,STARLINK-3961,PAYLOAD,2022-09-14 22:00:00,15.08835709,0.0001857,53.2165,208.3244,59.1598,212.7647,0.0014027999999999,0.00022106,0.0,0 STARLINK-3961,1 52637U 22052AR  22257.91667824  .00022106  00000-0  14028-2 0  9993,2 52637  53.2165 208.3244 0001857  59.1598 212.7647 15.08835709  1307,6917.894,95.438,541.043,538.474,0.0
52637.0,STARLINK-3961,PAYLOAD,2022-09-15 14:00:01,15.08860902,0.0001867,53.2158,205.3333,56.3693,238.7727,-0.0022655,-0.00036184,0.0,0 STARLINK-3961,1 52637U 22052AR  22258.58334491 -.00036184  00000-0 -22655-2 0  9996,2 52637  53.2158 205.3333 0001867  56.3693 238.7727 15.08860902  1301,6917.816999999999,95.436,540.9730000000002,538.39,0.0
52637.0,STARLINK-3961,PAYLOAD,2022-09-15 16:00:00,15.08822691,0.0001803,53.2158,204.9588,58.4341,329.6221,0.0024083,0.0003822999999999,0.0,0 STARLINK-3961,1 52637U 22052AR  22258.66667824  .00038230  00000-0  24083-2 0  9993,2 52637  53.2158 204.9588 0001803  58.4341 329.6221 15.08822691  1303,6917.933000000001,95.439,541.0459999999998,538.5509999999998,0.0
52637.0,STARLINK-3961,PAYLOAD,2022-09-16 06:11:04,15.08854294,0.0001804,53.2173,202.3066,63.4388,296.6789,7.7459e-06,-1.65e-06,0.0,0 STARLINK-3961,1 52637U 22052AR  22259.25769010 -.00000165  00000-0  77459-5 0  9994,2 52637  53.2173 202.3066 0001804  63.4388 296.6789 15.08854294 20140,6917.837,95.437,540.95,538.4540000000002,0.0
52637.0,STARLINK-3961,PAYLOAD,2022-09-17 02:51:06,15.08832528,0.0001621,53.2174,198.4412,68.2864,291.8301,-9.1033e-06,-4.33e-06,0.0,0 STARLINK-3961,1 52637U 22052AR  22260.11882689 -.00000433  00000-0 -91033-5 0  9992,2 52637  53.2174 198.4412 0001621  68.2864 291.8301 15.08832528 19848,6917.903,95.438,540.89,538.6469999999998,0.0
52637.0,STARLINK-3961,PAYLOAD,2022-09-17 06:01:53,15.08831806,0.000167,53.2173,197.8463,63.8132,296.3032,-1.5297e-05,-5.31e-06,0.0,0 STARLINK-3961,1 52637U 22052AR  22260.25130821 -.00000531  00000-0 -15297-4 0  9997,2 52637  53.2173 197.8463 0001670  63.8132 296.3032 15.08831806 20299,6917.905,95.438,540.9259999999998,538.615,0.0
52637.0,STARLINK-3961,PAYLOAD,2022-09-18 12:14:12,15.08844843,0.0001743,53.2176,192.1971,61.0997,299.017,6.0213e-05,6.7e-06,0.0,0 STARLINK-3961,1 52637U 22052AR  22261.50986131  .00000670  00000-0  60213-4 0  9999,2 52637  53.2176 192.1971 0001743  61.0997 299.0170 15.08844843 20483,6917.866,95.437,540.936,538.525,0.0
52637.0,STARLINK-3961,PAYLOAD,2022-09-18 20:11:07,15.08843289,0.0001781,53.2174,190.708,54.6204,305.4954,0.00020947,3.048e-05,0.0,0 STARLINK-3961,1 52637U 22052AR  22261.84105831  .00003048  00000-0  20947-3 0  9997,2 52637  53.2174 190.7080 0001781  54.6204 305.4954 15.08843289 20101,6917.87,95.437,540.967,538.503,0.0
52637.0,STARLINK-3961,PAYLOAD,2022-09-19 04:08:03,15.08837359,0.0001515,53.2171,189.2225,71.592,288.5237,0.000167,2.371e-05,0.0,0 STARLINK-3961,1 52637U 22052AR  22262.17226280  .00002371  00000-0  16700-3 0  9996,2 52637  53.2171 189.2225 0001515  71.5920 288.5237 15.08837359 20588,6917.888000000001,95.438,540.802,538.705,0.0
52637.0,STARLINK-3961,PAYLOAD,2022-09-20 03:58:51,15.0883798,0.0001764999999999,53.2164,184.7605,46.8629,313.251,-1.3343e-05,-5e-06,0.0,0 STARLINK-3961,1 52637U 22052AR  22263.16586820 -.00000500  00000-0 -13343-4 0  9990,2 52637  53.2164 184.7605 0001765  46.8629 313.2510 15.08837980 20300,6917.887,95.438,540.9730000000002,538.531,0.0
52637.0,STARLINK-3961,PAYLOAD,2022-09-21 02:14:14,15.08848371,0.0001773,53.2168,180.5983,51.3242,308.7909,-0.00011691,-2.149e-05,0.0,0 STARLINK-3961,1 52637U 22052AR  22264.09322383 -.00002149  00000-0 -11691-3 0  9999,2 52637  53.2168 180.5983 0001773  51.3242 308.7909 15.08848371 20440,6917.855,95.437,540.946,538.493,0.0
52637.0,STARLINK-3961,PAYLOAD,2022-09-21 11:46:33,15.08838071,0.000159,53.2169,178.8151,58.8578,301.257,-7.220399999999999e-06,-4.03e-06,0.0,0 STARLINK-3961,1 52637U 22052AR  22264.49066677 -.00000403  00000-0 -72204-5 0  9994,2 52637  53.2169 178.8151 0001590  58.8578 301.2570 15.08838071 20504,6917.886,95.438,540.851,538.651,0.0
52637.0,STARLINK-3961,PAYLOAD,2022-09-22 11:37:20,15.08833629,0.0001585999999999,53.2163,174.3561,52.7949,307.3188,5.3157e-05,5.58e-06,0.0,0 STARLINK-3961,1 52637U 22052AR  22265.48426964  .00000558  00000-0  53157-4 0  9997,2 52637  53.2163 174.3561 0001586  52.7949 307.3188 15.08833629 21084,6917.9,95.438,540.862,538.668,0.0
52637.0,STARLINK-3961,PAYLOAD,2022-09-23 01:55:48,15.08840293,0.0001694,53.2168,171.679,55.1593,304.9558,0.00011659,1.568e-05,0.0,0 STARLINK-3961,1 52637U 22052AR  22266.08042627  .00001568  00000-0  11659-3 0  9996,2 52637  53.2168 171.6790 0001694  55.1593 304.9558 15.08840293 20746,6917.879,95.438,540.9159999999998,538.573,0.0
52637.0,STARLINK-3961,PAYLOAD,2022-09-23 03:31:11,15.08841629,0.0001659,53.2167,171.3813,55.5536,304.5613,0.00013658,1.886e-05,0.0,0 STARLINK-3961,1 52637U 22052AR  22266.14666471  .00001886  00000-0  13658-3 0  9996,2 52637  53.2167 171.3813 0001659  55.5536 304.5613 15.08841629 21181,6917.875,95.437,540.888,538.5930000000002,0.0
52637.0,STARLINK-3961,PAYLOAD,2022-09-23 21:00:27,15.08836697,0.0001757,53.2171,168.11,58.424,301.6923,6.821699999999999e-06,-1.8e-06,0.0,0 STARLINK-3961,1 52637U 22052AR  22266.87531283 -.00000180  00000-0  68217-5 0  9998,2 52637  53.2171 168.1100 0001757  58.4240 301.6923 15.08836697 21295,6917.89,95.438,540.971,538.54,0.0
52637.0,STARLINK-3961,PAYLOAD,2022-09-24 00:11:12,15.08837726,0.0001813,53.2174,167.5162,59.6993,300.4178,0.00011129,1.483e-05,0.0,0 STARLINK-3961,1 52637U 22052AR  22267.00778910  .00001483  00000-0  11129-3 0  9998,2 52637  53.2174 167.5162 0001813  59.6993 300.4178 15.08837726 20887,6917.887,95.438,541.007,538.498,0.0
52637.0,STARLINK-3961,PAYLOAD,2022-09-24 20:51:13,15.08845202,0.0001745,53.2176,163.6486,63.5362,296.5809,8.820200000000001e-05,1.116e-05,0.0,0 STARLINK-3961,1 52637U 22052AR  22267.86890525  .00001116  00000-0  88202-4 0  9999,2 52637  53.2176 163.6486 0001745  63.5362 296.5809 15.08845202 21440,6917.864000000001,95.437,540.937,538.5219999999998,0.0
52637.0,STARLINK-3961,PAYLOAD,2022-09-25 03:12:46,15.08841282,0.0001914,53.2173,162.4601,53.9712,306.1457,3.3139e-05,2.39e-06,0.0,0 STARLINK-3961,1 52637U 22052AR  22268.13386927  .00000239  00000-0  33139-4 0  9990,2 52637  53.2173 162.4601 0001914  53.9712 306.1457 15.08841282 21051,6917.876,95.437,541.066,538.4169999999998,0.0
52637.0,STARLINK-3961,PAYLOAD,2022-09-26 01:28:10,15.08837604,0.0001685,53.2169,158.2965,57.2284,302.887,-5.5891e-06,-3.77e-06,0.0,0 STARLINK-3961,1 52637U 22052AR  22269.06123272 -.00000377  00000-0 -55891-5 0  9990,2 52637  53.2169 158.2965 0001685  57.2284 302.8870 15.08837604 21198,6917.888000000001,95.438,540.918,538.587,0.0
52637.0,STARLINK-3961,PAYLOAD,2022-09-26 09:25:06,15.08833203,0.0001692,53.2168,156.8092,54.7094,305.4057,-3.8427e-05,-8.99e-06,0.0,0 STARLINK-3961,1 52637U 22052AR  22269.39243704 -.00000899  00000-0 -38427-4 0  9993,2 52637  53.2168 156.8092 0001692  54.7094 305.4057 15.08833203 21671,6917.901,95.438,540.937,538.596,0.0
52637.0,STARLINK-3961,PAYLOAD,2022-09-26 18:57:25,15.08833808,0.0001703,53.2168,155.0258,53.5131,306.6018,-9.3553e-05,-1.776e-05,0.0,0 STARLINK-3961,1 52637U 22052AR  22269.78988093 -.00001776  00000-0 -93553-4 0  9999,2 52637  53.2168 155.0258 0001703  53.5131 306.6018 15.08833808 21309,6917.899,95.438,540.942,538.586,0.0
52637.0,STARLINK-3961,PAYLOAD,2022-09-27 01:18:58,15.08834353,0.000164,53.2169,153.8372,62.6746,297.4413,-2.1828e-05,-6.35e-06,0.0,0 STARLINK-3961,1 52637U 22052AR  22270.05483889 -.00000635  00000-0 -21828-4 0  9993,2 52637  53.2169 153.8372 0001640  62.6746 297.4413 15.08834353 21779,6917.898,95.438,540.8969999999998,538.628,0.0
52637.0,STARLINK-3961,PAYLOAD,2022-09-27 20:23:34,15.08846205,0.0001609,53.2172,150.2689,63.4432,296.6725,0.00018505,2.659e-05,0.0,0 STARLINK-3961,1 52637U 22052AR  22270.84970569  .00002659  00000-0  18505-3 0  9999,2 52637  53.2172 150.2689 0001609  63.4432 296.6725 15.08846205 21890,6917.861,95.437,540.84,538.613,0.0
52637.0,STARLINK-3961,PAYLOAD,2022-09-27 23:34:20,15.08851257,0.0001675,53.2174,149.6743,58.6758,301.4398,0.00022451,3.288e-05,0.0,0 STARLINK-3961,1 52637U 22052AR  22270.98218193  .00003288  00000-0  22451-3 0  9996,2 52637  53.2174 149.6743 0001675  58.6758 301.4398 15.08851257 21484,6917.846,95.437,540.87,538.552,0.0
